start=new Date('2023-05-14T00:00:00.000Z').valueOf();
sats=[{"OBJECT_ID":"2020-055AM","OBJECT_TYPE":"PAYLOAD","BSTAR":"0.00136510000000","COUNTRY_CODE":"US","DECAY_DATE":null,"MEAN_MOTION":"15.06399567","EPOCH":"2023-05-13T13:56:34.593216","CLASSIFICATION_TYPE":"U","TLE_LINE2":"2 46062  53.0547  65.4470 0001581 129.9837 230.1291 15.06399567153585","MEAN_MOTION_DOT":"0.00020110","SEMIMAJOR_AXIS":"6925.350","LAUNCH_DATE":"2020-08-07","ELEMENT_SET_NO":"999","REV_AT_EPOCH":"15358","MEAN_ANOMALY":"230.1291","REF_FRAME":"TEME","MEAN_MOTION_DDOT":"0.0000000000000","SITE":"AFETR","RA_OF_ASC_NODE":"65.4470","CENTER_NAME":"EARTH","PERIOD":"95.592","RCS_SIZE":"LARGE","FILE":"3907148","ECCENTRICITY":"0.00015810","TLE_LINE1":"1 46062U 20055AM  23133.58095594  .00020110  00000-0  13651-2 0  9999","OBJECT_NAME":"STARLINK-1574","NORAD_CAT_ID":"46062","TIME_SYSTEM":"UTC","ARG_OF_PERICENTER":"129.9837","PERIAPSIS":"546.120","EPHEMERIS_TYPE":"0","GP_ID":"231776629","INCLINATION":"53.0547","APOAPSIS":"548.310","MEAN_ELEMENT_THEORY":"SGP4"},{"OBJECT_NAME":"STARLINK-1577","TLE_LINE1":"1 46063U 20055AN  23133.17919177  .00027684  00000-0  18692-2 0  9990","TIME_SYSTEM":"UTC","NORAD_CAT_ID":"46063","RA_OF_ASC_NODE":"67.2461","SITE":"AFETR","MEAN_MOTION_DDOT":"0.0000000000000","REF_FRAME":"TEME","MEAN_ANOMALY":"291.1481","RCS_SIZE":"LARGE","FILE":"3906510","ECCENTRICITY":"0.00012730","CENTER_NAME":"EARTH","PERIOD":"95.591","INCLINATION":"53.0543","GP_ID":"231715631","APOAPSIS":"548.039","MEAN_ELEMENT_THEORY":"SGP4","ARG_OF_PERICENTER":"68.9644","PERIAPSIS":"546.276","EPHEMERIS_TYPE":"0","DECAY_DATE":null,"EPOCH":"2023-05-13T04:18:02.168928","MEAN_MOTION":"15.06418268","OBJECT_TYPE":"PAYLOAD","BSTAR":"0.00186920000000","OBJECT_ID":"2020-055AN","COUNTRY_CODE":"US","SEMIMAJOR_AXIS":"6925.293","MEAN_MOTION_DOT":"0.00027684","REV_AT_EPOCH":"15302","LAUNCH_DATE":"2020-08-07","ELEMENT_SET_NO":"999","CLASSIFICATION_TYPE":"U","TLE_LINE2":"2 46063  53.0543  67.2461 0001273  68.9644 291.1481 15.06418268153025"},{"ECCENTRICITY":"0.00010180","RCS_SIZE":"LARGE","FILE":"3906915","PERIOD":"95.591","CENTER_NAME":"EARTH","MEAN_MOTION_DDOT":"0.0000000000000","SITE":"AFETR","RA_OF_ASC_NODE":"67.6938","MEAN_ANOMALY":"269.2414","REF_FRAME":"TEME","TIME_SYSTEM":"UTC","NORAD_CAT_ID":"46064","OBJECT_NAME":"STARLINK-1583","TLE_LINE1":"1 46064U 20055AP  23133.07967289  .00034643  00000-0  23323-2 0  9997","EPHEMERIS_TYPE":"0","PERIAPSIS":"546.465","ARG_OF_PERICENTER":"90.8692","MEAN_ELEMENT_THEORY":"SGP4","APOAPSIS":"547.875","GP_ID":"231743410","INCLINATION":"53.0533","COUNTRY_CODE":"US","BSTAR":"0.00233230000000","OBJECT_TYPE":"PAYLOAD","OBJECT_ID":"2020-055AP","EPOCH":"2023-05-13T01:54:43.737696","MEAN_MOTION":"15.06414246","DECAY_DATE":null,"TLE_LINE2":"2 46064  53.0533  67.6938 0001018  90.8692 269.2414 15.06414246153543","CLASSIFICATION_TYPE":"U","ELEMENT_SET_NO":"999","LAUNCH_DATE":"2020-08-07","REV_AT_EPOCH":"15354","SEMIMAJOR_AXIS":"6925.305","MEAN_MOTION_DOT":"0.00034643"},{"MEAN_MOTION_DOT":"0.00029948","SEMIMAJOR_AXIS":"6925.302","REV_AT_EPOCH":"15381","LAUNCH_DATE":"2020-08-07","ELEMENT_SET_NO":"999","TLE_LINE2":"2 46065  53.0545  47.4232 0001237  82.0575 278.0555 15.06415141153815","CLASSIFICATION_TYPE":"U","DECAY_DATE":null,"MEAN_MOTION":"15.06415141","EPOCH":"2023-05-13T03:20:57.470784","OBJECT_ID":"2020-055AQ","OBJECT_TYPE":"PAYLOAD","BSTAR":"0.00202010000000","COUNTRY_CODE":"US","APOAPSIS":"548.024","GP_ID":"231743660","INCLINATION":"53.0545","MEAN_ELEMENT_THEORY":"SGP4","ARG_OF_PERICENTER":"82.0575","PERIAPSIS":"546.310","EPHEMERIS_TYPE":"0","TLE_LINE1":"1 46065U 20055AQ  23133.13955406  .00029948  00000-0  20201-2 0  9997","OBJECT_NAME":"STARLINK-1515","NORAD_CAT_ID":"46065","TIME_SYSTEM":"UTC","MEAN_ANOMALY":"278.0555","REF_FRAME":"TEME","RA_OF_ASC_NODE":"47.4232","SITE":"AFETR","MEAN_MOTION_DDOT":"0.0000000000000","CENTER_NAME":"EARTH","PERIOD":"95.591","ECCENTRICITY":"0.00012370","FILE":"3906915","RCS_SIZE":"LARGE"},{"INCLINATION":"53.0542","GP_ID":"231744411","APOAPSIS":"547.912","MEAN_ELEMENT_THEORY":"SGP4","ARG_OF_PERICENTER":"87.4284","PERIAPSIS":"546.391","EPHEMERIS_TYPE":"0","TLE_LINE1":"1 46066U 20055AR  23133.14418090  .00032610  00000-0  21968-2 0  9993","OBJECT_NAME":"STARLINK-1525","NORAD_CAT_ID":"46066","TIME_SYSTEM":"UTC","REF_FRAME":"TEME","MEAN_ANOMALY":"272.6831","SITE":"AFETR","RA_OF_ASC_NODE":"47.4045","MEAN_MOTION_DDOT":"0.0000000000000","PERIOD":"95.591","CENTER_NAME":"EARTH","RCS_SIZE":"LARGE","FILE":"3906915","ECCENTRICITY":"0.00010980","MEAN_MOTION_DOT":"0.00032610","SEMIMAJOR_AXIS":"6925.286","ELEMENT_SET_NO":"999","LAUNCH_DATE":"2020-08-07","REV_AT_EPOCH":"15382","CLASSIFICATION_TYPE":"U","TLE_LINE2":"2 46066  53.0542  47.4045 0001098  87.4284 272.6831 15.06420371153825","DECAY_DATE":null,"MEAN_MOTION":"15.06420371","EPOCH":"2023-05-13T03:27:37.229760","OBJECT_ID":"2020-055AR","BSTAR":"0.00219680000000","OBJECT_TYPE":"PAYLOAD","COUNTRY_CODE":"US"},{"EPOCH":"2023-05-13T03:31:34.107456","MEAN_MOTION":"15.06418810","DECAY_DATE":null,"COUNTRY_CODE":"US","BSTAR":"0.00215230000000","OBJECT_TYPE":"PAYLOAD","OBJECT_ID":"2020-055AS","LAUNCH_DATE":"2020-08-07","REV_AT_EPOCH":"15383","ELEMENT_SET_NO":"999","SEMIMAJOR_AXIS":"6925.291","MEAN_MOTION_DOT":"0.00031939","CLASSIFICATION_TYPE":"U","TLE_LINE2":"2 46067  53.0547  47.3806 0001121  85.8744 274.2373 15.06418810153830","TIME_SYSTEM":"UTC","NORAD_CAT_ID":"46067","OBJECT_NAME":"STARLINK-1529","TLE_LINE1":"1 46067U 20055AS  23133.14692254  .00031939  00000-0  21523-2 0  9990","RCS_SIZE":"LARGE","FILE":"3906915","ECCENTRICITY":"0.00011210","CENTER_NAME":"EARTH","PERIOD":"95.591","MEAN_MOTION_DDOT":"0.0000000000000","SITE":"AFETR","RA_OF_ASC_NODE":"47.3806","REF_FRAME":"TEME","MEAN_ANOMALY":"274.2373","MEAN_ELEMENT_THEORY":"SGP4","INCLINATION":"53.0547","GP_ID":"231745161","APOAPSIS":"547.932","EPHEMERIS_TYPE":"0","PERIAPSIS":"546.380","ARG_OF_PERICENTER":"85.8744"},{"PERIOD":"95.593","CENTER_NAME":"EARTH","ECCENTRICITY":"0.00014330","RCS_SIZE":"LARGE","FILE":"3907148","REF_FRAME":"TEME","MEAN_ANOMALY":"248.6927","RA_OF_ASC_NODE":"44.0557","SITE":"AFETR","MEAN_MOTION_DDOT":"0.0000000000000","NORAD_CAT_ID":"46068","TIME_SYSTEM":"UTC","TLE_LINE1":"1 46068U 20055AT  23133.88779098  .00020534  00000-0  13937-2 0  9993","OBJECT_NAME":"STARLINK-1532","EPHEMERIS_TYPE":"0","PERIAPSIS":"546.244","ARG_OF_PERICENTER":"111.4215","MEAN_ELEMENT_THEORY":"SGP4","APOAPSIS":"548.229","GP_ID":"231775634","INCLINATION":"53.0548","COUNTRY_CODE":"US","OBJECT_ID":"2020-055AT","OBJECT_TYPE":"PAYLOAD","BSTAR":"0.00139370000000","MEAN_MOTION":"15.06392493","EPOCH":"2023-05-13T21:18:25.140672","DECAY_DATE":null,"TLE_LINE2":"2 46068  53.0548  44.0557 0001433 111.4215 248.6927 15.06392493153944","CLASSIFICATION_TYPE":"U","REV_AT_EPOCH":"15394","LAUNCH_DATE":"2020-08-07","ELEMENT_SET_NO":"999","MEAN_MOTION_DOT":"0.00020534","SEMIMAJOR_AXIS":"6925.372"},{"EPHEMERIS_TYPE":"0","PERIAPSIS":"546.465","ARG_OF_PERICENTER":"88.3914","MEAN_ELEMENT_THEORY":"SGP4","APOAPSIS":"548.066","GP_ID":"231776394","INCLINATION":"53.0552","CENTER_NAME":"EARTH","PERIOD":"95.593","ECCENTRICITY":"0.00011560","RCS_SIZE":"LARGE","FILE":"3907148","REF_FRAME":"TEME","MEAN_ANOMALY":"271.7207","MEAN_MOTION_DDOT":"0.0000000000000","SITE":"AFETR","RA_OF_ASC_NODE":"43.9945","NORAD_CAT_ID":"46069","TIME_SYSTEM":"UTC","TLE_LINE1":"1 46069U 20055AU  23133.90349739  .00019189  00000-0  13042-2 0  9993","OBJECT_NAME":"STARLINK-1533","TLE_LINE2":"2 46069  53.0552  43.9945 0001156  88.3914 271.7207 15.06382948153952","CLASSIFICATION_TYPE":"U","LAUNCH_DATE":"2020-08-07","REV_AT_EPOCH":"15395","ELEMENT_SET_NO":"999","MEAN_MOTION_DOT":"0.00019189","SEMIMAJOR_AXIS":"6925.401","COUNTRY_CODE":"US","OBJECT_ID":"2020-055AU","BSTAR":"0.00130420000000","OBJECT_TYPE":"PAYLOAD","MEAN_MOTION":"15.06382948","EPOCH":"2023-05-13T21:41:02.174496","DECAY_DATE":null},{"INCLINATION":"53.0538","GP_ID":"231776630","APOAPSIS":"548.331","MEAN_ELEMENT_THEORY":"SGP4","ARG_OF_PERICENTER":"120.5176","EPHEMERIS_TYPE":"0","PERIAPSIS":"546.192","OBJECT_NAME":"STARLINK-1536","TLE_LINE1":"1 46070U 20055AV  23133.91823683  .00015231  00000-0  10396-2 0  9994","TIME_SYSTEM":"UTC","NORAD_CAT_ID":"46070","SITE":"AFETR","MEAN_MOTION_DDOT":"0.0000000000000","RA_OF_ASC_NODE":"43.9265","REF_FRAME":"TEME","MEAN_ANOMALY":"239.5965","RCS_SIZE":"LARGE","FILE":"3907148","ECCENTRICITY":"0.00015440","PERIOD":"95.593","CENTER_NAME":"EARTH","SEMIMAJOR_AXIS":"6925.396","MEAN_MOTION_DOT":"0.00015231","ELEMENT_SET_NO":"999","LAUNCH_DATE":"2020-08-07","REV_AT_EPOCH":"15395","CLASSIFICATION_TYPE":"U","TLE_LINE2":"2 46070  53.0538  43.9265 0001544 120.5176 239.5965 15.06384400153951","DECAY_DATE":null,"EPOCH":"2023-05-13T22:02:15.662112","MEAN_MOTION":"15.06384400","BSTAR":"0.00103960000000","OBJECT_TYPE":"PAYLOAD","OBJECT_ID":"2020-055AV","COUNTRY_CODE":"US"},{"TIME_SYSTEM":"UTC","NORAD_CAT_ID":"46071","OBJECT_NAME":"STARLINK-1538","TLE_LINE1":"1 46071U 20055AW  23133.14048904  .00028790  00000-0  19420-2 0  9996","ECCENTRICITY":"0.00012810","RCS_SIZE":"LARGE","FILE":"3906915","PERIOD":"95.590","CENTER_NAME":"EARTH","SITE":"AFETR","RA_OF_ASC_NODE":"47.4195","MEAN_MOTION_DDOT":"0.0000000000000","REF_FRAME":"TEME","MEAN_ANOMALY":"242.5306","MEAN_ELEMENT_THEORY":"SGP4","APOAPSIS":"547.997","INCLINATION":"53.0544","GP_ID":"231744662","EPHEMERIS_TYPE":"0","PERIAPSIS":"546.223","ARG_OF_PERICENTER":"117.5813","EPOCH":"2023-05-13T03:22:18.253056","MEAN_MOTION":"15.06433757","DECAY_DATE":null,"COUNTRY_CODE":"US","BSTAR":"0.00194200000000","OBJECT_TYPE":"PAYLOAD","OBJECT_ID":"2020-055AW","ELEMENT_SET_NO":"999","LAUNCH_DATE":"2020-08-07","REV_AT_EPOCH":"15383","SEMIMAJOR_AXIS":"6925.245","MEAN_MOTION_DOT":"0.00028790","TLE_LINE2":"2 46071  53.0544  47.4195 0001281 117.5813 242.5306 15.06433757153832","CLASSIFICATION_TYPE":"U"}];
